ONEWEB-0267             
1 48985U 21060U   25223.68114466  .00000235  00000+0  58062-3 0  9996
2 48985  87.9031 290.4701 0002167  89.8460 270.2920 13.16592892200154
ONEWEB-0268             
1 48986U 21060V   25223.87745960  .00000058  00000+0  11884-3 0  9991
2 48986  87.9034 290.4366 0002120  95.9048 264.2324 13.16593311200444
ONEWEB-0269             
1 48987U 21060W   25223.70644974 -.00000002  00000+0 -37904-4 0  9990
2 48987  87.9028 290.5029 0002110 101.2488 258.8880 13.16591909200204
ONEWEB-0270             
1 48988U 21060X   25223.57189028  .00000050  00000+0  96511-4 0  9990
2 48988  87.9029 290.4997 0001928  83.5094 276.6257 13.16592177198929
ONEWEB-0271             
1 48989U 21060Y   25223.71122782  .00000045  00000+0  84163-4 0  9995
2 48989  87.9033 290.4556 0002094  89.2026 270.9344 13.16593887200230
ONEWEB-0272             
1 48990U 21060Z   25223.58139065 -.00000005  00000+0 -46173-4 0  9991
2 48990  87.9030 290.5110 0002210  90.5465 269.5919 13.16592441198871
ONEWEB-0273             
1 48991U 21060AA  25223.60355939 -.00000047  00000+0 -15593-3 0  9992
2 48991  87.9031 290.4927 0001958  91.8925 268.2430 13.16592815198858
ONEWEB-0274             
1 48992U 21060AB  25223.55290173  .00000187  00000+0  45575-3 0  9991
2 48992  87.9028 290.5366 0002471  96.1114 264.0298 13.16594526200189
